STARLINK-2463_new
1 18122C 21027AG  21326.15659741 -.00011151  00000-0 -74736-3 0  3266
2 18122  53.0551 358.0324 0001513  62.2979  44.8755 15.06399966    16
STARLINK-2463_old
1 28122C 21027AG  21325.14599713 -.00000865  00000-0 -57941-4 0  3255
2 28122  53.0556   2.5692 0001421  61.3981 322.1921 15.06405580    18
